IRIDIUM 155             
1 43573U 18061E   24015.49280564  .00000105  00000+0  30486-4 0  9998
2 43573  86.3938  66.0056 0002260  89.2545 270.8909 14.34216987286700
IRIDIUM 154             
1 43574U 18061F   24015.12493484 -.00000022  00000+0 -14927-4 0  9998
2 43574  86.3943  66.2498 0002346  98.4908 261.6554 14.34217444286690
IRIDIUM 163             
1 43575U 18061G   24014.68729209  .00000473  00000+0  16170-3 0  9995
2 43575  86.3941  66.3760 0002287  94.7009 265.4448 14.34220800286602
IRIDIUM 156             
1 43576U 18061H   24015.49914775  .00000491  00000+0  16814-3 0  9995
2 43576  86.3941  66.0422 0001896  91.5613 268.5800 14.34219064286703
IRIDIUM 164             
1 43577U 18061J   24014.64289800  .00000096  00000+0  27253-4 0  9997
2 43577  86.3943  66.4269 0001947  97.2972 262.8446 14.34217783286638
IRIDIUM 159             
1 43578U 18061K   24015.51817540  .00000174  00000+0  55006-4 0  9997
2 43578  86.3939  66.0159 0002305  95.5655 264.5804 14.34218531286725
IRIDIUM 180             
1 43922U 19002A   24015.51767037  .00000599  00000+0  20680-3 0  9991
2 43922  86.3976   2.8926 0002225  91.9262 268.2189 14.34220517262373
IRIDIUM 176             
1 43923U 19002B   24015.03514125  .00002133  00000+0  33418-3 0  9996
2 43923  86.6104   3.1243 0002512  88.2681 271.8824 14.72266487269167
IRIDIUM 168             
1 43924U 19002C   24015.02295252  .00000232  00000+0  75928-4 0  9994
2 43924  86.3978   3.1518 0002222  90.1405 270.0045 14.34219580262241
IRIDIUM 173             
1 43925U 19002D   24015.49864515 -.00000011  00000+0 -10954-4 0  9995
2 43925  86.3971   2.8782 0002171  88.3653 271.7792 14.34218320262306
IRIDIUM 169             
1 43926U 19002E   24014.57237030  .00000636  00000+0  20146-3 0  9994
2 43926  86.4209  34.8702 0003998  51.4596 308.6960 14.38608425263046
IRIDIUM 172             
1 43927U 19002F   24015.49229894  .00000431  00000+0  14680-3 0  9995
2 43927  86.3969   2.8861 0002027  89.4567 270.6861 14.34221037262303
IRIDIUM 175             
1 43928U 19002G   24014.96112228  .00002404  00000+0  37705-3 0  9994
2 43928  86.1531 345.0242 0002444  85.8267 274.3228 14.72269876269144
IRIDIUM 171             
1 43929U 19002H   24014.91512497  .00000161  00000+0  50522-4 0  9993
2 43929  86.3983   3.3357 0002046  89.9121 270.2310 14.34217940262212
IRIDIUM 170             
1 43930U 19002J   24014.90530956  .00002140  00000+0  33535-3 0  9997
2 43930  86.6105   3.1832 0002358  87.3722 272.7765 14.72267406269159
IRIDIUM 167             
1 43931U 19002K   24014.90878128  .00000586  00000+0  20211-3 0  9993
2 43931  86.3974   3.1447 0002055  92.6036 267.5395 14.34220056262213
IRIDIUM 181             
1 56726U 23068S   24014.60049493  .00000652  00000+0  18669-3 0  9996
2 56726  86.8606  49.4953 0001528  91.8976 268.2400 14.43582341 34837
IRIDIUM 177             
1 56727U 23068T   24015.49913845  .00001118  00000+0  14353-3 0  9990
2 56727  86.1963  28.3119 0002370  95.3075 264.8416 14.80243701 35646
IRIDIUM 174             
1 56728U 23068U   24015.49368651  .00001141  00000+0  14674-3 0  9992
2 56728  86.1970  28.4057 0002461  92.1183 268.0320 14.80224743 35648
IRIDIUM 178             
1 56729U 23068V   24015.48829425  .00002728  00000+0  35537-3 0  9996
2 56729  86.5763  38.5844 0002387  96.1716 263.9778 14.80254226 35642
IRIDIUM 179             
1 56730U 23068W   24014.60409616  .00002449  00000+0  31871-3 0  9994
2 56730  86.6771  41.1494 0002447  96.8095 263.3405 14.80249304 35517
